{"type": "FeatureCollection", "features": [ {"type": "Feature", "properties": {"norad_id": 43058, "name": "GSAT0218 (GALILEO 22)", "group": "galileo", "lat": 30.111042949451214, "lon": -109.71896969705942, "alt_km": 23218.875663285857, "timestamp": "2025-12-20T07:33:51.075978+00:00", "meta": {"OBJECT_NAME": "GSAT0218 (GALILEO 22)", "OBJECT_ID": "2017-079D", "EPOCH": "2025-12-19T01:56:03.752736", "MEAN_MOTION": 1.70474173, "ECCENTRICITY": 0.0002958, "INCLINATION": 55.1266, "RA_OF_ASC_NODE": 226.4587, "ARG_OF_PERICENTER": 305.073, "MEAN_ANOMALY": 55.0073, "EPHEMERIS_TYPE": 0, "CLASSIFICATION_TYPE": "U", "NORAD_CAT_ID": 43058, "ELEMENT_SET_NO": 999, "REV_AT_EPOCH": 4994, "BSTAR": 0, "MEAN_MOTION_DOT": 6.6e-07, "MEAN_MOTION_DDOT": 0}, "tle": {"line1": "1 43058U 17079D   25353.08059899  .00000066  00000+0  00000+0 0  9990", "line2": "2 43058  55.1266 226.4587 0002958 305.0730  55.0073  1.70474173 49943"}}, "geometry": {"type": "Point", "coordinates": [-109.71896969705942, 30.111042949451214]}}, {"type": "Feature", "properties": {"norad_id": 43564, "name": "GSAT0221 (GALILEO 25)", "group": "galileo", "lat": 56.46565456320429, "lon": 90.14506497923956, "alt_km": 23235.270724619128, "timestamp": "2025-12-20T07:33:51.075989+00:00", "meta": {"OBJECT_NAME": "GSAT0221 (GALILEO 25)", "OBJECT_ID": "2018-060A", "EPOCH": "2025-12-19T13:40:28.820064", "MEAN_MOTION": 1.70475889, "ECCENTRICITY": 0.00067205, "INCLINATION": 57.2264, "RA_OF_ASC_NODE": 346.6332, "ARG_OF_PERICENTER": 285.6827, "MEAN_ANOMALY": 74.2548, "EPHEMERIS_TYPE": 0, "CLASSIFICATION_TYPE": "U", "NORAD_CAT_ID": 43564, "ELEMENT_SET_NO": 999, "REV_AT_EPOCH": 4610, "BSTAR": 0, "MEAN_MOTION_DOT": -7.2e-07, "MEAN_MOTION_DDOT": 0}, "tle": {"line1": "1 43564U 18060A   25353.56977801 -.00000072  00000+0  00000+0 0  9996", "line2": "2 43564  57.2264 346.6332 0006720 285.6827  74.2548  1.70475889 46100"}}, "geometry": {"type": "Point", "coordinates": [90.14506497923956, 56.46565456320429]}}, {"type": "Feature", "properties": {"norad_id": 43565, "name": "GSAT0222 (GALILEO 26)", "group": "galileo", "lat": -30.514328962699068, "lon": -35.708116413305845, "alt_km": 23216.156537390187, "timestamp": "2025-12-20T07:33:51.076003+00:00", "meta": {"OBJECT_NAME": "GSAT0222 (GALILEO 26)", "OBJECT_ID": "2018-060B", "EPOCH": "2025-12-18T00:42:17.845344", "MEAN_MOTION": 1.70475645, "ECCENTRICITY": 0.00060883, "INCLINATION": 57.23, "RA_OF_ASC_NODE": 346.6777, "ARG_OF_PERICENTER": 265.4214, "MEAN_ANOMALY": 94.5238, "EPHEMERIS_TYPE": 0, "CLASSIFICATION_TYPE": "U", "NORAD_CAT_ID": 43565, "ELEMENT_SET_NO": 999, "REV_AT_EPOCH": 4612, "BSTAR": 0, "MEAN_MOTION_DOT": -7.6e-07, "MEAN_MOTION_DDOT": 0}, "tle": {"line1": "1 43565U 18060B   25352.02937321 -.00000076  00000+0  00000+0 0  9994", "line2": "2 43565  57.2300 346.6777 0006088 265.4214  94.5238  1.70475645 46121"}}, "geometry": {"type": "Point", "coordinates": [-35.708116413305845, -30.514328962699068]}}, {"type": "Feature", "properties": {"norad_id": 43566, "name": "GSAT0219 (GALILEO 23)", "group": "galileo", "lat": -5.923581202332628, "lon": 170.44192597272917, "alt_km": 23226.891226515476, "timestamp": "2025-12-20T07:33:51.076015+00:00", "meta": {"OBJECT_NAME": "GSAT0219 (GALILEO 23)", "OBJECT_ID": "2018-060C", "EPOCH": "2025-12-18T20:05:25.027008", "MEAN_MOTION": 1.70475846, "ECCENTRICITY": 0.00058667, "INCLINATION": 57.2292, "RA_OF_ASC_NODE": 346.6575, "ARG_OF_PERICENTER": 289.8664, "MEAN_ANOMALY": 70.0835, "EPHEMERIS_TYPE": 0, "CLASSIFICATION_TYPE": "U", "NORAD_CAT_ID": 43566, "ELEMENT_SET_NO": 999, "REV_AT_EPOCH": 4611, "BSTAR": 0, "MEAN_MOTION_DOT": -7.4e-07, "MEAN_MOTION_DDOT": 0}, "tle": {"line1": "1 43566U 18060C   25352.83709522 -.00000074  00000+0  00000+0 0  9992", "line2": "2 43566  57.2292 346.6575 0005866 289.8664  70.0835  1.70475846 46114"}}, "geometry": {"type": "Point", "coordinates": [170.44192597272917, -5.923581202332628]}}, {"type": "Feature", "properties": {"norad_id": 43567, "name": "GSAT0220 (GALILEO 24)", "group": "galileo", "lat": 41.170757449376715, "lon": 20.90317864803141, "alt_km": 23227.455226077036, "timestamp": "2025-12-20T07:33:51.076026+00:00", "meta": {"OBJECT_NAME": "GSAT0220 (GALILEO 24)", "OBJECT_ID": "2018-060D", "EPOCH": "2025-12-17T07:09:30.654144", "MEAN_MOTION": 1.70475982, "ECCENTRICITY": 0.00060597, "INCLINATION": 57.2291, "RA_OF_ASC_NODE": 346.699, "ARG_OF_PERICENTER": 286.0855, "MEAN_ANOMALY": 73.8638, "EPHEMERIS_TYPE": 0, "CLASSIFICATION_TYPE": "U", "NORAD_CAT_ID": 43567, "ELEMENT_SET_NO": 999, "REV_AT_EPOCH": 4607, "BSTAR": 0, "MEAN_MOTION_DOT": -7.8e-07, "MEAN_MOTION_DDOT": 0}, "tle": {"line1": "1 43567U 18060D   25351.29827146 -.00000078  00000+0  00000+0 0  9999", "line2": "2 43567  57.2291 346.6990 0006059 286.0855  73.8638  1.70475982 46079"}}, "geometry": {"type": "Point", "coordinates": [20.90317864803141, 41.170757449376715]}}, {"type": "Feature", "properties": {"norad_id": 49809, "name": "GSAT0223 (GALILEO 27)", "group": "galileo", "lat": 30.985209688516733, "lon": 143.7287177281099, "alt_km": 23223.21898278703, "timestamp": "2025-12-20T07:33:51.076037+00:00", "meta": {"OBJECT_NAME": "GSAT0223 (GALILEO 27)", "OBJECT_ID": "2021-116A", "EPOCH": "2025-12-19T11:56:47.637312", "MEAN_MOTION": 1.7047609, "ECCENTRICITY": 0.00044147, "INCLINATION": 57.2179, "RA_OF_ASC_NODE": 346.5305, "ARG_OF_PERICENTER": 254.6091, "MEAN_ANOMALY": 105.9777, "EPHEMERIS_TYPE": 0, "CLASSIFICATION_TYPE": "U", "NORAD_CAT_ID": 49809, "ELEMENT_SET_NO": 999, "REV_AT_EPOCH": 2512, "BSTAR": 0, "MEAN_MOTION_DOT": -7.2e-07, "MEAN_MOTION_DDOT": 0}, "tle": {"line1": "1 49809U 21116A   25353.49777358 -.00000072  00000+0  00000+0 0  9997", "line2": "2 49809  57.2179 346.5305 0004414 254.6091 105.9777  1.70476090 25129"}}, "geometry": {"type": "Point", "coordinates": [143.7287177281099, 30.985209688516733]}}, {"type": "Feature", "properties": {"norad_id": 49810, "name": "GSAT0224 (GALILEO 28)", "group": "galileo", "lat": -54.22843495788908, "lon": -130.04757636980838, "alt_km": 23216.65969862706, "timestamp": "2025-12-20T07:33:51.076048+00:00", "meta": {"OBJECT_NAME": "GSAT0224 (GALILEO 28)", "OBJECT_ID": "2021-116B", "EPOCH": "2025-12-18T10:12:29.028672", "MEAN_MOTION": 1.70476126, "ECCENTRICITY": 0.00037733, "INCLINATION": 57.2191, "RA_OF_ASC_NODE": 346.558, "ARG_OF_PERICENTER": 258.3671, "MEAN_ANOMALY": 276.634, "EPHEMERIS_TYPE": 0, "CLASSIFICATION_TYPE": "U", "NORAD_CAT_ID": 49810, "ELEMENT_SET_NO": 999, "REV_AT_EPOCH": 2512, "BSTAR": 0, "MEAN_MOTION_DOT": -7.5e-07, "MEAN_MOTION_DDOT": 0}, "tle": {"line1": "1 49810U 21116B   25352.42533598 -.00000075  00000+0  00000+0 0  9990", "line2": "2 49810  57.2191 346.5580 0003773 258.3671 276.6340  1.70476126 25124"}}, "geometry": {"type": "Point", "coordinates": [-130.04757636980838, -54.22843495788908]}}, {"type": "Feature", "properties": {"norad_id": 59598, "name": "GSAT0225 (GALILEO 29)", "group": "galileo", "lat": -49.173302590214504, "lon": -19.858117869098894, "alt_km": 23224.53594961345, "timestamp": "2025-12-20T07:33:51.076060+00:00", "meta": {"OBJECT_NAME": "GSAT0225 (GALILEO 29)", "OBJECT_ID": "2024-079A", "EPOCH": "2025-12-19T07:40:30.040032", "MEAN_MOTION": 1.7047502, "ECCENTRICITY": 0.0002191, "INCLINATION": 55.0052, "RA_OF_ASC_NODE": 106.1117, "ARG_OF_PERICENTER": 185.2617, "MEAN_ANOMALY": 171.1938, "EPHEMERIS_TYPE": 0, "CLASSIFICATION_TYPE": "U", "NORAD_CAT_ID": 59598, "ELEMENT_SET_NO": 999, "REV_AT_EPOCH": 1024, "BSTAR": 0, "MEAN_MOTION_DOT": -6e-08, "MEAN_MOTION_DDOT": 0}, "tle": {"line1": "1 59598U 24079A   25353.31979213 -.00000006  00000+0  00000+0 0  9996", "line2": "2 59598  55.0052 106.1117 0002191 185.2617 171.1938  1.70475020 10248"}}, "geometry": {"type": "Point", "coordinates": [-19.858117869098894, -49.173302590214504]}}, {"type": "Feature", "properties": {"norad_id": 59600, "name": "GSAT0227 (GALILEO 30)", "group": "galileo", "lat": 35.48429692208634, "lon": -103.8445134657638, "alt_km": 23209.522340042702, "timestamp": "2025-12-20T07:33:51.076071+00:00", "meta": {"OBJECT_NAME": "GSAT0227 (GALILEO 30)", "OBJECT_ID": "2024-079C", "EPOCH": "2025-12-19T12:12:51.636672", "MEAN_MOTION": 1.70474897, "ECCENTRICITY": 0.0002924, "INCLINATION": 55.0006, "RA_OF_ASC_NODE": 106.105, "ARG_OF_PERICENTER": 116.8359, "MEAN_ANOMALY": 243.1562, "EPHEMERIS_TYPE": 0, "CLASSIFICATION_TYPE": "U", "NORAD_CAT_ID": 59600, "ELEMENT_SET_NO": 999, "REV_AT_EPOCH": 1030, "BSTAR": 0, "MEAN_MOTION_DOT": -6e-08, "MEAN_MOTION_DDOT": 0}, "tle": {"line1": "1 59600U 24079C   25353.50893098 -.00000006  00000+0  00000+0 0  9997", "line2": "2 59600  55.0006 106.1050 0002924 116.8359 243.1562  1.70474897 10305"}}, "geometry": {"type": "Point", "coordinates": [-103.8445134657638, 35.48429692208634]}}, {"type": "Feature", "properties": {"norad_id": 61182, "name": "GSAT0232 (GALILEO 32)", "group": "galileo", "lat": -24.85792348493638, "lon": -152.51986238577607, "alt_km": 23228.291125492728, "timestamp": "2025-12-20T07:33:51.076082+00:00", "meta": {"OBJECT_NAME": "GSAT0232 (GALILEO 32)", "OBJECT_ID": "2024-167A", "EPOCH": "2025-12-18T08:17:33.319392", "MEAN_MOTION": 1.70473695, "ECCENTRICITY": 0.0001893, "INCLINATION": 55.239, "RA_OF_ASC_NODE": 226.2771, "ARG_OF_PERICENTER": 209.3432, "MEAN_ANOMALY": 351.1487, "EPHEMERIS_TYPE": 0, "CLASSIFICATION_TYPE": "U", "NORAD_CAT_ID": 61182, "ELEMENT_SET_NO": 999, "REV_AT_EPOCH": 779, "BSTAR": 0, "MEAN_MOTION_DOT": 6.2e-07, "MEAN_MOTION_DDOT": 0}, "tle": {"line1": "1 61182U 24167A   25352.34552453  .00000062  00000+0  00000+0 0  9992", "line2": "2 61182  55.2390 226.2771 0001893 209.3432 351.1487  1.70473695  7799"}}, "geometry": {"type": "Point", "coordinates": [-152.51986238577607, -24.85792348493638]}}]}